[{"OBJECT_NAME":"STARLINK-32466","OBJECT_ID":"2024-202Q","EPOCH":"2026-03-09T11:14:28.591008","MEAN_MOTION":15.27579013,"ECCENTRICITY":0.00020003,"INCLINATION":43.0012,"RA_OF_ASC_NODE":239.2537,"ARG_OF_PERICENTER":284.1644,"MEAN_ANOMALY":75.8985,"EPHEMERIS_TYPE":0,"CLASSIFICATION_TYPE":"U","NORAD_CAT_ID":61859,"ELEMENT_SET_NO":999,"REV_AT_EPOCH":7530,"BSTAR":1.3395711e-5,"MEAN_MOTION_DOT":1.06e-6,"MEAN_MOTION_DDOT":0},{"OBJECT_NAME":"CXBN","OBJECT_ID":"2012-048E","EPOCH":"2026-03-09T15:19:34.514688","MEAN_MOTION":15.19824857,"ECCENTRICITY":0.0107387,"INCLINATION":64.6612,"RA_OF_ASC_NODE":146.5396,"ARG_OF_PERICENTER":203.7806,"MEAN_ANOMALY":155.8339,"EPHEMERIS_TYPE":0,"CLASSIFICATION_TYPE":"U","NORAD_CAT_ID":38762,"ELEMENT_SET_NO":999,"REV_AT_EPOCH":10314,"BSTAR":0.00060054,"MEAN_MOTION_DOT":0.00014901,"MEAN_MOTION_DDOT":0}]
